NORAD_CAT_ID,OBJECT_NAME,OBJECT_TYPE,EPOCH,MEAN_MOTION,ECCENTRICITY,INCLINATION,RA_OF_ASC_NODE,ARG_OF_PERICENTER,MEAN_ANOMALY,BSTAR,MEAN_MOTION_DOT,MEAN_MOTION_DDOT,TLE_LINE0,TLE_LINE1,TLE_LINE2,SEMIMAJOR_AXIS,PERIOD,APOGEE,PERIGEE,DECAYED
50186.0,STARLINK-3274,PAYLOAD,2023-09-14 17:28:22,15.08820791,0.0001494,53.2191,10.6314,91.2458,268.8705,-0.00023971,-4.099e-05,0.0,0 STARLINK-3274,1 50186U 21125AG  23257.72803280 -.00004099  00000-0 -23971-3 0  9999,2 50186  53.2191  10.6314 0001494  91.2458 268.8705 15.08820791 99538,6917.939,95.439,540.838,538.771,0.0
50186.0,STARLINK-3274,PAYLOAD,2023-09-15 10:57:36,15.08844084,0.0001528,53.2202,7.3628,79.6358,280.4806,0.00037116,5.625e-05,0.0,0 STARLINK-3274,1 50186U 21125AG  23258.45667102  .00005625  00000-0  37116-3 0  9991,2 50186  53.2202   7.3628 0001528  79.6358 280.4806 15.08844084 99161,6917.868,95.437,540.79,538.676,0.0
50186.0,STARLINK-3274,PAYLOAD,2023-09-15 12:32:59,15.0884036,0.0001525,53.2204,7.0654,74.5774,285.5386,0.00089411,0.0001397,0.0,0 STARLINK-3274,1 50186U 21125AG  23258.52291540  .00013970  00000-0  89411-3 0  9995,2 50186  53.2204   7.0654 0001525  74.5774 285.5386 15.08840360 99658,6917.879,95.438,540.799,538.689,0.0
50186.0,STARLINK-3274,PAYLOAD,2023-09-16 07:37:37,15.08847282,0.0001688,53.2199,3.497,82.3345,277.7838,0.00028404,4.236e-05,0.0,0 STARLINK-3274,1 50186U 21125AG  23259.31779246  .00004236  00000-0  28404-3 0  9997,2 50186  53.2199   3.4970 0001688  82.3345 277.7838 15.08847282 99298,6917.858,95.437,540.891,538.555,0.0
50186.0,STARLINK-3274,PAYLOAD,2023-09-16 13:59:09,15.08844638,0.0001595,53.2198,2.3079,80.2076,279.9096,0.00030139,4.512e-05,0.0,0 STARLINK-3274,1 50186U 21125AG  23259.58275253  .00004512  00000-0  30139-3 0  9990,2 50186  53.2198   2.3079 0001595  80.2076 279.9096 15.08844638 99810,6917.866,95.437,540.835,538.628,0.0
50186.0,STARLINK-3274,PAYLOAD,2023-09-17 10:39:10,15.08848165,0.0001489,53.2189,358.4417,79.5202,280.5958,6.8695e-05,8.06e-06,0.0,0 STARLINK-3274,1 50186U 21125AG  23260.44386792  .00000806  00000-0  68695-4 0  9999,2 50186  53.2189 358.4417 0001489  79.5202 280.5958 15.08848165 99460,6917.855,95.437,540.751,538.69,0.0
50186.0,STARLINK-3274,PAYLOAD,2023-09-17 12:14:33,15.08850159,0.0001496,53.2189,358.1441,79.5855,280.5305,6.7474e-05,7.86e-06,0.0,0 STARLINK-3274,1 50186U 21125AG  23260.51010711  .00000786  00000-0  67474-4 0  9993,2 50186  53.2189 358.1441 0001496  79.5855 280.5305 15.08850159 99952,6917.849,95.437,540.749,538.679,0.0
50186.0,STARLINK-3274,PAYLOAD,2023-09-17 23:22:15,15.088372,0.0001481,53.2185,356.0625,86.7465,273.3697,-3.8684e-05,-9.04e-06,0.0,0 STARLINK-3274,1 50186U 21125AG  23260.97379307 -.00000904  00000-0 -38684-4 0  9997,2 50186  53.2185 356.0625 0001481  86.7465 273.3697 15.08837200 99541,6917.889,95.438,540.778,538.729,0.0
50186.0,STARLINK-3274,PAYLOAD,2023-09-18 13:40:44,15.08835982,0.0001606,53.2197,353.3864,87.3169,272.8007,-4.1036e-06,-3.53e-06,0.0,0 STARLINK-3274,1 50186U 21125AG  23261.56996162 -.00000353  00000-0 -41036-5 0  9991,2 50186  53.2197 353.3864 0001606  87.3169 272.8007 15.08835982100116,6917.893,95.438,540.869,538.647,0.0
50186.0,STARLINK-3274,PAYLOAD,2023-09-19 10:20:43,15.08860187,0.0001526,53.2189,349.5218,89.3435,270.7732,0.00037415,5.675e-05,0.0,0 STARLINK-3274,1 50186U 21125AG  23262.43106326  .00005675  00000-0  37415-3 0  9997,2 50186  53.2189 349.5218 0001526  89.3435 270.7732 15.08860187 99761,6917.819,95.436,540.739,538.628,0.0
50186.0,STARLINK-3274,PAYLOAD,2023-09-19 15:06:52,15.08878576,0.0001323,53.2172,348.6268,89.288,270.8264,0.00077823,0.00012132,0.0,0 STARLINK-3274,1 50186U 21125AG  23262.62977637  .00012132  00000-0  77823-3 0  9992,2 50186  53.2172 348.6268 0001323  89.2880 270.8264 15.08878576 99791,6917.762,95.435,540.543,538.712,0.0
50186.0,STARLINK-3274,PAYLOAD,2023-09-20 05:25:22,15.08831833,0.0001478,53.218,345.9529,102.6648,257.451,-7.2955e-05,-1.449e-05,0.0,0 STARLINK-3274,1 50186U 21125AG  23263.22595649 -.00001449  00000-0 -72955-4 0  9991,2 50186  53.2180 345.9529 0001478 102.6648 257.4510 15.08831833 99883,6917.905,95.438,540.793,538.748,0.0
50186.0,STARLINK-3274,PAYLOAD,2023-09-20 13:22:18,15.08829897,0.0001256,53.2164,344.4648,101.8269,258.2864,-0.00021861,-3.764e-05,0.0,0 STARLINK-3274,1 50186U 21125AG  23263.55715383 -.00003764  00000-0 -21861-3 0  9997,2 50186  53.2164 344.4648 0001256 101.8269 258.2864 15.08829897100415,6917.911,95.438,540.645,538.907,0.0
50186.0,STARLINK-3274,PAYLOAD,2023-09-21 10:02:19,15.08850454,0.000123,53.2163,340.5989,103.4125,256.7004,0.0011004,0.00017273,0.0,0 STARLINK-3274,1 50186U 21125AG  23264.41827738  .00017273  00000-0  11004-2 0  9996,2 50186  53.2163 340.5989 0001230 103.4125 256.7004 15.08850454100063,6917.848,95.437,540.564,538.863,0.0
50186.0,STARLINK-3274,PAYLOAD,2023-09-21 11:37:42,15.08854682,0.0001262,53.2161,340.3012,104.4025,255.7108,0.0011549,0.00018147,0.0,0 STARLINK-3274,1 50186U 21125AG  23264.48451634  .00018147  00000-0  11549-2 0  9996,2 50186  53.2161 340.3012 0001262 104.4025 255.7108 15.08854682100556,6917.836,95.437,540.574,538.827,0.0
50186.0,STARLINK-3274,PAYLOAD,2023-09-21 22:45:24,15.08845469,0.0001832,53.2165,338.2218,76.4884,283.6312,0.00087909,0.00013732,0.0,0 STARLINK-3274,1 50186U 21125AG  23264.94819570  .00013732  00000-0  87909-3 0  9993,2 50186  53.2165 338.2218 0001832  76.4884 283.6312 15.08845469100143,6917.864,95.437,540.996,538.461,0.0
50186.0,STARLINK-3274,PAYLOAD,2023-09-22 11:28:29,15.08844857,0.0001528,53.2167,335.8419,93.939,266.1777,0.00012674,1.73e-05,0.0,0 STARLINK-3274,1 50186U 21125AG  23265.47811616  .00001730  00000-0  12674-3 0  9997,2 50186  53.2167 335.8419 0001528  93.9390 266.1777 15.08844857100702,6917.866,95.437,540.788,538.673,0.0
50186.0,STARLINK-3274,PAYLOAD,2023-09-22 14:39:15,15.08846136,0.0001565,53.2172,335.2446,109.6327,250.4834,0.00029014,4.333e-05,0.0,0 STARLINK-3274,1 50186U 21125AG  23265.61059571  .00004333  00000-0  29014-3 0  9995,2 50186  53.2172 335.2446 0001565 109.6327 250.4834 15.08846136100249,6917.862,95.437,540.809,538.644,0.0
50186.0,STARLINK-3274,PAYLOAD,2023-09-23 11:19:15,15.08850805,0.0001393,53.2167,331.3793,105.7824,254.3322,9.6966e-05,1.256e-05,0.0,0 STARLINK-3274,1 50186U 21125AG  23266.47171160  .00001256  00000-0  96966-4 0  9991,2 50186  53.2167 331.3793 0001393 105.7824 254.3322 15.08850805100853,6917.847,95.437,540.676,538.749,0.0
50186.0,STARLINK-3274,PAYLOAD,2023-09-24 04:48:30,15.08842025,0.000158,53.2169,328.112,90.8044,269.3129,0.00011023,1.467e-05,0.0,0 STARLINK-3274,1 50186U 21125AG  23267.20035478  .00001467  00000-0  11023-3 0  9998,2 50186  53.2169 328.1120 0001580  90.8044 269.3129 15.08842025100484,6917.874,95.437,540.832,538.646,0.0
50186.0,STARLINK-3274,PAYLOAD,2023-09-24 11:10:03,15.08840732,0.000161,53.2171,326.92,99.7191,260.3983,2.6673e-05,1.37e-06,0.0,0 STARLINK-3274,1 50186U 21125AG  23267.46531483  .00000137  00000-0  26673-4 0  9994,2 50186  53.2171 326.9200 0001610  99.7191 260.3983 15.08840732101008,6917.878,95.438,540.857,538.629,0.0
50186.0,STARLINK-3274,PAYLOAD,2023-09-25 09:25:26,15.08847397,0.0001559,53.2165,322.7562,99.8653,260.2515,0.00013528,1.866e-05,0.0,0 STARLINK-3274,1 50186U 21125AG  23268.39267255  .00001866  00000-0  13528-3 0  9994,2 50186  53.2165 322.7562 0001559  99.8653 260.2515 15.08847397100667,6917.858,95.437,540.801,538.644,0.0
50186.0,STARLINK-3274,PAYLOAD,2023-09-25 11:00:50,15.08848193,0.0001604,53.2163,322.4617,97.7381,262.3793,0.00016178,2.288e-05,0.0,0 STARLINK-3274,1 50186U 21125AG  23268.45891258  .00002288  00000-0  16178-3 0  9990,2 50186  53.2163 322.4617 0001604  97.7381 262.3793 15.08848193101150,6917.855,95.437,540.83,538.611,0.0
50186.0,STARLINK-3274,PAYLOAD,2023-09-26 12:27:00,15.08843939,0.0001561,53.2158,317.7031,98.8505,261.2663,0.00013069,1.793e-05,0.0,0 STARLINK-3274,1 50186U 21125AG  23269.51875626  .00001793  00000-0  13069-3 0  9995,2 50186  53.2158 317.7031 0001561  98.8505 261.2663 15.08843939100834,6917.868,95.437,540.813,538.653,0.0
50186.0,STARLINK-3274,PAYLOAD,2023-09-27 12:17:47,15.08847319,0.0001701,53.2162,313.2404,95.5051,264.6135,0.00011618,1.562e-05,0.0,0 STARLINK-3274,1 50186U 21125AG  23270.51235453  .00001562  00000-0  11618-3 0  9997,2 50186  53.2162 313.2404 0001701  95.5051 264.6135 15.08847319101467,6917.858,95.437,540.9,538.546,0.0
50186.0,STARLINK-3274,PAYLOAD,2023-09-28 12:08:35,15.08836706,0.0001599,53.2168,308.7748,99.8325,260.2848,3.4188e-05,2.56e-06,0.0,0 STARLINK-3274,1 50186U 21125AG  23271.50596454  .00000256  00000-0  34188-4 0  9995,2 50186  53.2168 308.7748 0001599  99.8325 260.2848 15.08836706101134,6917.89,95.438,540.862,538.649,0.0
50186.0,STARLINK-3274,PAYLOAD,2023-09-29 07:13:12,15.08845113,0.0001688,53.2169,305.2101,102.9902,257.1279,4.1128e-05,3.67e-06,0.0,0 STARLINK-3274,1 50186U 21125AG  23272.30084138  .00000367  00000-0  41128-4 0  9990,2 50186  53.2169 305.2101 0001688 102.9902 257.1279 15.08845113101254,6917.865,95.437,540.897,538.562,0.0
50186.0,STARLINK-3274,PAYLOAD,2023-09-30 05:28:36,15.08846638,0.0001806,53.2173,301.0477,111.2953,248.8232,0.00016949,2.411e-05,0.0,0 STARLINK-3274,1 50186U 21125AG  23273.22819644  .00002411  00000-0  16949-3 0  9994,2 50186  53.2173 301.0477 0001806 111.2953 248.8232 15.08846638101877,6917.86,95.437,540.974,538.476,0.0
50186.0,STARLINK-3274,PAYLOAD,2023-09-30 08:39:22,15.08851313,0.0001625,53.2168,300.4539,95.3141,264.8037,0.0001959,2.832e-05,0.0,0 STARLINK-3274,1 50186U 21125AG  23273.36067424  .00002832  00000-0  19590-3 0  9992,2 50186  53.2168 300.4539 0001625  95.3141 264.8037 15.08851313101410,6917.846,95.437,540.835,538.587,0.0
50186.0,STARLINK-3274,PAYLOAD,2023-10-01 02:08:37,15.08842624,0.0001081,53.2152,297.1844,67.7213,292.3894,1.9208e-05,1.8e-07,0.0,0 STARLINK-3274,1 50186U 21125AG  23274.08932166  .00000018  00000-0  19208-4 0  9997,2 50186  53.2152 297.1844 0001081  67.7213 292.3894 15.08842624101527,6917.872,95.437,540.485,538.99,0.0
